start=new Date('2023-05-03T00:00:00.000Z').valueOf();
sats=[{"MEAN_MOTION":"15.08839257","OBJECT_ID":"2022-097T","OBJECT_NAME":"STARLINK-4510","MEAN_MOTION_DDOT":"0.0000000000000","RCS_SIZE":"LARGE","MEAN_MOTION_DOT":"0.00001349","ARG_OF_PERICENTER":"93.1961","GP_ID":"231124788","TLE_LINE2":"2 53405  53.2153 121.7705 0001317  93.1961 266.9182 15.08839257 41212","EPHEMERIS_TYPE":"0","SITE":"AFETR","REF_FRAME":"TEME","BSTAR":"0.00010283000000","MEAN_ELEMENT_THEORY":"SGP4","CLASSIFICATION_TYPE":"U","NORAD_CAT_ID":"53405","COUNTRY_CODE":"US","MEAN_ANOMALY":"266.9182","LAUNCH_DATE":"2022-08-10","DECAY_DATE":null,"PERIOD":"95.438","RA_OF_ASC_NODE":"121.7705","EPOCH":"2023-05-02T16:54:32.260320","APOAPSIS":"540.659","PERIAPSIS":"538.837","OBJECT_TYPE":"PAYLOAD","ECCENTRICITY":"0.00013170","SEMIMAJOR_AXIS":"6917.883","CENTER_NAME":"EARTH","TIME_SYSTEM":"UTC","FILE":"3899277","REV_AT_EPOCH":"4121","INCLINATION":"53.2153","ELEMENT_SET_NO":"999","TLE_LINE1":"1 53405U 22097T   23122.70454005  .00001349  00000-0  10283-3 0  9996"},{"REF_FRAME":"TEME","MEAN_ELEMENT_THEORY":"SGP4","BSTAR":"0.00007864900000","CLASSIFICATION_TYPE":"U","NORAD_CAT_ID":"53406","COUNTRY_CODE":"US","MEAN_ANOMALY":"268.6448","PERIOD":"95.438","DECAY_DATE":null,"LAUNCH_DATE":"2022-08-10","RA_OF_ASC_NODE":"111.8817","ARG_OF_PERICENTER":"91.4675","GP_ID":"231125532","EPHEMERIS_TYPE":"0","TLE_LINE2":"2 53406  53.2166 111.8817 0001138  91.4675 268.6448 15.08838742 41341","SITE":"AFETR","RCS_SIZE":"LARGE","MEAN_MOTION_DOT":"0.00000964","MEAN_MOTION":"15.08838742","OBJECT_ID":"2022-097U","OBJECT_NAME":"STARLINK-4533","MEAN_MOTION_DDOT":"0.0000000000000","FILE":"3899277","REV_AT_EPOCH":"4134","INCLINATION":"53.2166","ELEMENT_SET_NO":"999","TLE_LINE1":"1 53406U 22097U   23122.67970123  .00000964  00000-0  78649-4 0  9990","SEMIMAJOR_AXIS":"6917.884","CENTER_NAME":"EARTH","TIME_SYSTEM":"UTC","OBJECT_TYPE":"PAYLOAD","ECCENTRICITY":"0.00011380","EPOCH":"2023-05-02T16:18:46.186272","APOAPSIS":"540.536","PERIAPSIS":"538.962"},{"CENTER_NAME":"EARTH","SEMIMAJOR_AXIS":"6917.867","TIME_SYSTEM":"UTC","FILE":"3899068","ELEMENT_SET_NO":"999","REV_AT_EPOCH":"4143","INCLINATION":"53.2166","TLE_LINE1":"1 53407U 22097V   23122.35680226  .00001281  00000-0  98552-4 0  9996","EPOCH":"2023-05-02T08:33:47.715264","APOAPSIS":"540.669","PERIAPSIS":"538.795","OBJECT_TYPE":"PAYLOAD","ECCENTRICITY":"0.00013550","GP_ID":"231093840","ARG_OF_PERICENTER":"100.2007","TLE_LINE2":"2 53407  53.2166 103.5649 0001355 100.2007 259.9138 15.08844396 41433","SITE":"AFETR","EPHEMERIS_TYPE":"0","MEAN_ELEMENT_THEORY":"SGP4","BSTAR":"0.00009855200000","REF_FRAME":"TEME","CLASSIFICATION_TYPE":"U","NORAD_CAT_ID":"53407","COUNTRY_CODE":"US","DECAY_DATE":null,"PERIOD":"95.437","LAUNCH_DATE":"2022-08-10","RA_OF_ASC_NODE":"103.5649","MEAN_ANOMALY":"259.9138","OBJECT_ID":"2022-097V","MEAN_MOTION":"15.08844396","OBJECT_NAME":"STARLINK-4537","MEAN_MOTION_DDOT":"0.0000000000000","RCS_SIZE":"LARGE","MEAN_MOTION_DOT":"0.00001281"},{"TIME_SYSTEM":"UTC","SEMIMAJOR_AXIS":"6917.870","CENTER_NAME":"EARTH","TLE_LINE1":"1 53408U 22097W   23122.69073791  .00002267  00000-0  16046-3 0  9999","INCLINATION":"53.2157","REV_AT_EPOCH":"4134","ELEMENT_SET_NO":"999","FILE":"3899277","PERIAPSIS":"538.805","APOAPSIS":"540.666","EPOCH":"2023-05-02T16:34:39.755424","ECCENTRICITY":"0.00013450","OBJECT_TYPE":"PAYLOAD","EPHEMERIS_TYPE":"0","TLE_LINE2":"2 53408  53.2157 111.8352 0001345  71.6900 288.4239 15.08843344 41340","SITE":"AFETR","GP_ID":"231124038","ARG_OF_PERICENTER":"71.6900","MEAN_ANOMALY":"288.4239","DECAY_DATE":null,"LAUNCH_DATE":"2022-08-10","PERIOD":"95.437","RA_OF_ASC_NODE":"111.8352","COUNTRY_CODE":"US","CLASSIFICATION_TYPE":"U","NORAD_CAT_ID":"53408","REF_FRAME":"TEME","MEAN_ELEMENT_THEORY":"SGP4","BSTAR":"0.00016046000000","MEAN_MOTION_DDOT":"0.0000000000000","OBJECT_NAME":"STARLINK-4491","MEAN_MOTION":"15.08843344","OBJECT_ID":"2022-097W","RCS_SIZE":"LARGE","MEAN_MOTION_DOT":"0.00002267"},{"RA_OF_ASC_NODE":"103.5435","DECAY_DATE":null,"LAUNCH_DATE":"2022-08-10","PERIOD":"95.437","MEAN_ANOMALY":"261.5302","COUNTRY_CODE":"US","CLASSIFICATION_TYPE":"U","NORAD_CAT_ID":"53409","MEAN_ELEMENT_THEORY":"SGP4","BSTAR":"0.00008588200000","REF_FRAME":"TEME","TLE_LINE2":"2 53409  53.2174 103.5435 0001380  98.5847 261.5302 15.08848164 41435","EPHEMERIS_TYPE":"0","SITE":"AFETR","GP_ID":"231092839","ARG_OF_PERICENTER":"98.5847","RCS_SIZE":"LARGE","MEAN_MOTION_DOT":"0.00001079","MEAN_MOTION_DDOT":"0.0000000000000","OBJECT_NAME":"STARLINK-4490","OBJECT_ID":"2022-097X","MEAN_MOTION":"15.08848164","TLE_LINE1":"1 53409U 22097X   23122.35311349  .00001079  00000-0  85882-4 0  9992","ELEMENT_SET_NO":"999","REV_AT_EPOCH":"4143","INCLINATION":"53.2174","FILE":"3899068","TIME_SYSTEM":"UTC","CENTER_NAME":"EARTH","SEMIMAJOR_AXIS":"6917.855","ECCENTRICITY":"0.00013800","OBJECT_TYPE":"PAYLOAD","PERIAPSIS":"538.766","APOAPSIS":"540.675","EPOCH":"2023-05-02T08:28:29.005536"},{"INCLINATION":"53.2164","REV_AT_EPOCH":"4129","ELEMENT_SET_NO":"999","FILE":"3899068","TLE_LINE1":"1 53410U 22097Y   23122.35585835  .00001804  00000-0  13139-3 0  9998","TIME_SYSTEM":"UTC","SEMIMAJOR_AXIS":"6917.871","CENTER_NAME":"EARTH","ECCENTRICITY":"0.00011630","OBJECT_TYPE":"PAYLOAD","APOAPSIS":"540.540","EPOCH":"2023-05-02T08:32:26.161440","PERIAPSIS":"538.931","NORAD_CAT_ID":"53410","CLASSIFICATION_TYPE":"U","REF_FRAME":"TEME","MEAN_ELEMENT_THEORY":"SGP4","BSTAR":"0.00013139000000","MEAN_ANOMALY":"265.6870","DECAY_DATE":null,"LAUNCH_DATE":"2022-08-10","RA_OF_ASC_NODE":"113.3356","PERIOD":"95.437","COUNTRY_CODE":"US","ARG_OF_PERICENTER":"94.4255","GP_ID":"231093089","TLE_LINE2":"2 53410  53.2164 113.3356 0001163  94.4255 265.6870 15.08843204 41293","EPHEMERIS_TYPE":"0","SITE":"AFETR","MEAN_MOTION_DOT":"0.00001804","RCS_SIZE":"LARGE","MEAN_MOTION":"15.08843204","OBJECT_ID":"2022-097Y","MEAN_MOTION_DDOT":"0.0000000000000","OBJECT_NAME":"STARLINK-4492"},{"MEAN_MOTION":"15.08842556","OBJECT_ID":"2022-097Z","OBJECT_NAME":"STARLINK-4497","MEAN_MOTION_DDOT":"0.0000000000000","RCS_SIZE":"LARGE","MEAN_MOTION_DOT":"0.00001448","ARG_OF_PERICENTER":"80.0372","GP_ID":"231124289","TLE_LINE2":"2 53411  53.2164 111.8193 0001388  80.0372 280.0777 15.08842556 41348","EPHEMERIS_TYPE":"0","SITE":"AFETR","REF_FRAME":"TEME","MEAN_ELEMENT_THEORY":"SGP4","BSTAR":"0.00010906000000","NORAD_CAT_ID":"53411","CLASSIFICATION_TYPE":"U","COUNTRY_CODE":"US","MEAN_ANOMALY":"280.0777","LAUNCH_DATE":"2022-08-10","DECAY_DATE":null,"PERIOD":"95.437","RA_OF_ASC_NODE":"111.8193","EPOCH":"2023-05-02T16:39:57.697920","APOAPSIS":"540.698","PERIAPSIS":"538.777","OBJECT_TYPE":"PAYLOAD","ECCENTRICITY":"0.00013880","SEMIMAJOR_AXIS":"6917.873","CENTER_NAME":"EARTH","TIME_SYSTEM":"UTC","FILE":"3899277","INCLINATION":"53.2164","REV_AT_EPOCH":"4134","ELEMENT_SET_NO":"999","TLE_LINE1":"1 53411U 22097Z   23122.69441780  .00001448  00000-0  10906-3 0  9999"},{"COUNTRY_CODE":"US","MEAN_ANOMALY":"274.9874","DECAY_DATE":null,"RA_OF_ASC_NODE":"111.8993","LAUNCH_DATE":"2022-08-10","PERIOD":"95.438","REF_FRAME":"TEME","BSTAR":"0.00007731000000","MEAN_ELEMENT_THEORY":"SGP4","CLASSIFICATION_TYPE":"U","NORAD_CAT_ID":"53412","TLE_LINE2":"2 53412  53.2166 111.8993 0001302  85.1267 274.9874 15.08840169 41342","EPHEMERIS_TYPE":"0","SITE":"AFETR","ARG_OF_PERICENTER":"85.1267","GP_ID":"231124538","RCS_SIZE":"LARGE","MEAN_MOTION_DOT":"0.00000943","OBJECT_NAME":"STARLINK-4496","MEAN_MOTION_DDOT":"0.0000000000000","MEAN_MOTION":"15.08840169","OBJECT_ID":"2022-097AA","TLE_LINE1":"1 53412U 22097AA  23122.67601902  .00000943  00000-0  77310-4 0  9994","FILE":"3899277","INCLINATION":"53.2166","REV_AT_EPOCH":"4134","ELEMENT_SET_NO":"999","SEMIMAJOR_AXIS":"6917.880","CENTER_NAME":"EARTH","TIME_SYSTEM":"UTC","OBJECT_TYPE":"PAYLOAD","ECCENTRICITY":"0.00013020","PERIAPSIS":"538.844","EPOCH":"2023-05-02T16:13:28.043328","APOAPSIS":"540.646"},{"REV_AT_EPOCH":"4129","INCLINATION":"53.2163","ELEMENT_SET_NO":"999","FILE":"3899068","TLE_LINE1":"1 53413U 22097AB  23122.35217763  .00000865  00000-0  72402-4 0  9998","TIME_SYSTEM":"UTC","SEMIMAJOR_AXIS":"6917.870","CENTER_NAME":"EARTH","ECCENTRICITY":"0.00013370","OBJECT_TYPE":"PAYLOAD","APOAPSIS":"540.660","EPOCH":"2023-05-02T08:27:08.147232","PERIAPSIS":"538.811","NORAD_CAT_ID":"53413","CLASSIFICATION_TYPE":"U","REF_FRAME":"TEME","BSTAR":"0.00007240200000","MEAN_ELEMENT_THEORY":"SGP4","MEAN_ANOMALY":"269.0901","DECAY_DATE":null,"LAUNCH_DATE":"2022-08-10","RA_OF_ASC_NODE":"113.3512","PERIOD":"95.437","COUNTRY_CODE":"US","ARG_OF_PERICENTER":"91.0245","GP_ID":"231093340","EPHEMERIS_TYPE":"0","TLE_LINE2":"2 53413  53.2163 113.3512 0001337  91.0245 269.0901 15.08843250 41298","SITE":"AFETR","RCS_SIZE":"LARGE","MEAN_MOTION_DOT":"0.00000865","MEAN_MOTION":"15.08843250","OBJECT_ID":"2022-097AB","MEAN_MOTION_DDOT":"0.0000000000000","OBJECT_NAME":"STARLINK-4500"},{"COUNTRY_CODE":"US","DECAY_DATE":null,"RA_OF_ASC_NODE":"111.9310","LAUNCH_DATE":"2022-08-10","PERIOD":"95.437","MEAN_ANOMALY":"339.8270","BSTAR":"0.00007405100000","MEAN_ELEMENT_THEORY":"SGP4","REF_FRAME":"TEME","CLASSIFICATION_TYPE":"U","NORAD_CAT_ID":"53414","TLE_LINE2":"2 53414  53.2180 111.9310 0004421  20.2897 339.8270 15.08846293 41332","EPHEMERIS_TYPE":"0","SITE":"AFETR","ARG_OF_PERICENTER":"20.2897","GP_ID":"231125533","RCS_SIZE":"LARGE","MEAN_MOTION_DOT":"0.00000890","OBJECT_NAME":"STARLINK-4304","MEAN_MOTION_DDOT":"0.0000000000000","OBJECT_ID":"2022-097AC","MEAN_MOTION":"15.08846293","TLE_LINE1":"1 53414U 22097AC  23122.67232551  .00000890  00000-0  74051-4 0  9996","FILE":"3899277","ELEMENT_SET_NO":"999","INCLINATION":"53.2180","REV_AT_EPOCH":"4133","CENTER_NAME":"EARTH","SEMIMAJOR_AXIS":"6917.861","TIME_SYSTEM":"UTC","OBJECT_TYPE":"PAYLOAD","ECCENTRICITY":"0.00044210","PERIAPSIS":"536.668","EPOCH":"2023-05-02T16:08:08.924064","APOAPSIS":"542.785"}];
